NORAD_CAT_ID,OBJECT_NAME,OBJECT_TYPE,EPOCH,MEAN_MOTION,ECCENTRICITY,INCLINATION,RA_OF_ASC_NODE,ARG_OF_PERICENTER,MEAN_ANOMALY,BSTAR,MEAN_MOTION_DOT,MEAN_MOTION_DDOT,TLE_LINE0,TLE_LINE1,TLE_LINE2,SEMIMAJOR_AXIS,PERIOD,APOGEE,PERIGEE,DECAYED
54171.0,STARLINK-5229,PAYLOAD,2023-06-27 12:50:45,15.08835171,0.000114,53.216,115.9891,92.3546,267.7576,1.0331e-05,-1.23e-06,0.0,0 STARLINK-5229,1 54171U 22141Q   23178.53524549 -.00000123  00000-0  10331-4 0  9995,2 54171  53.2160 115.9891 0001140  92.3546 267.7576 15.08835171 36914,6917.895,95.438,540.549,538.972,0.0
54171.0,STARLINK-5229,PAYLOAD,2023-06-28 04:44:35,15.08845401,0.0001129,53.2161,113.0155,96.1853,263.9268,5.447e-05,5.79e-06,0.0,0 STARLINK-5229,1 54171U 22141Q   23179.19763859  .00000579  00000-0  54470-4 0  9993,2 54171  53.2161 113.0155 0001129  96.1853 263.9268 15.08845401 37012,6917.864,95.437,540.51,538.948,0.0
54171.0,STARLINK-5229,PAYLOAD,2023-06-29 01:24:37,15.08833702,0.0001069,53.2163,109.1496,89.2249,270.8866,8.3376e-05,1.039e-05,0.0,0 STARLINK-5229,1 54171U 22141Q   23180.05876669  .00001039  00000-0  83376-4 0  9993,2 54171  53.2163 109.1496 0001069  89.2249 270.8866 15.08833702 37149,6917.9,95.438,540.504,539.025,0.0
54171.0,STARLINK-5229,PAYLOAD,2023-06-30 12:23:06,15.08838523,0.0001265,53.2177,102.6024,106.9181,253.195,5.4896e-06,-2.01e-06,0.0,0 STARLINK-5229,1 54171U 22141Q   23181.51604497 -.00000201  00000-0  54896-5 0  9990,2 54171  53.2177 102.6024 0001265 106.9181 253.1950 15.08838523 37367,6917.885,95.438,540.625,538.875,0.0
54171.0,STARLINK-5229,PAYLOAD,2023-07-02 00:56:58,15.08844183,0.00012,53.2167,95.7672,90.4634,269.6496,4.451e-05,4.21e-06,0.0,0 STARLINK-5229,1 54171U 22141Q   23183.03956290  .00000421  00000-0  44510-4 0  9994,2 54171  53.2167  95.7672 0001200  90.4634 269.6496 15.08844183 37597,6917.868,95.437,540.563,538.902,0.0
54171.0,STARLINK-5229,PAYLOAD,2023-07-03 02:23:08,15.08841383,0.0001266,53.2169,91.0082,82.2016,277.912,9.4384e-05,1.215e-05,0.0,0 STARLINK-5229,1 54171U 22141Q   23184.09940417  .00001215  00000-0  94384-4 0  9991,2 54171  53.2169  91.0082 0001266  82.2016 277.9120 15.08841383 37751,6917.876,95.437,540.617,538.865,0.0
54171.0,STARLINK-5229,PAYLOAD,2023-07-04 02:13:56,15.08839474,0.0001239,53.2171,86.5488,81.0542,279.0591,-1.8898e-05,-5.89e-06,0.0,0 STARLINK-5229,1 54171U 22141Q   23185.09301050 -.00000589  00000-0 -18898-4 0  9997,2 54171  53.2171  86.5488 0001239  81.0542 279.0591 15.08839474 37904,6917.882,95.438,540.604,538.89,0.0
54171.0,STARLINK-5229,PAYLOAD,2023-07-05 10:01:39,15.08813427,0.0001342,53.2168,80.6022,88.4388,271.6758,0.00034008,5.125e-05,0.0,0 STARLINK-5229,1 54171U 22141Q   23186.41782039  .00005125  00000-0  34008-3 0  9993,2 54171  53.2168  80.6022 0001342  88.4388 271.6758 15.08813427 38109,6917.962,95.439,540.755,538.898,0.0
54171.0,STARLINK-5229,PAYLOAD,2023-07-06 01:55:30,15.08834257,0.0001261,53.217,77.6277,84.9472,275.1664,4.118e-05,3.67e-06,0.0,0 STARLINK-5229,1 54171U 22141Q   23187.08021620  .00000367  00000-0  41180-4 0  9992,2 54171  53.2170  77.6277 0001261  84.9472 275.1664 15.08834257 38205,6917.898,95.438,540.635,538.891,0.0
54171.0,STARLINK-5229,PAYLOAD,2023-07-07 01:46:17,15.0884772,0.0001155,53.2173,73.1681,80.9106,279.2017,6.6615e-05,7.73e-06,0.0,0 STARLINK-5229,1 54171U 22141Q   23188.07380790  .00000773  00000-0  66615-4 0  9999,2 54171  53.2173  73.1681 0001155  80.9106 279.2017 15.08847720 38352,6917.857,95.437,540.521,538.923,0.0
54171.0,STARLINK-5229,PAYLOAD,2023-07-08 01:37:04,15.08842636,0.0001276,53.2175,68.7072,98.7298,261.3838,7.5172e-05,9.09e-06,0.0,0 STARLINK-5229,1 54171U 22141Q   23189.06741061  .00000909  00000-0  75172-4 0  9990,2 54171  53.2175  68.7072 0001276  98.7298 261.3838 15.08842636 38502,6917.872,95.437,540.62,538.855,0.0
54171.0,STARLINK-5229,PAYLOAD,2023-07-08 19:06:19,15.0883599,0.0001083,53.216,65.4363,90.0186,270.093,-1.2783e-05,-4.91e-06,0.0,0 STARLINK-5229,1 54171U 22141Q   23189.79605846 -.00000491  00000-0 -12783-4 0  9997,2 54171  53.2160  65.4363 0001083  90.0186 270.0930 15.08835990 38617,6917.893,95.438,540.507,539.008,0.0
54171.0,STARLINK-5229,PAYLOAD,2023-07-09 01:27:51,15.08842698,0.0001185,53.218,64.2459,93.866,266.2467,-1.8134e-05,-5.76e-06,0.0,0 STARLINK-5229,1 54171U 22141Q   23190.06101392 -.00000576  00000-0 -18134-4 0  9996,2 54171  53.2180  64.2459 0001185  93.8660 266.2467 15.08842698 38652,6917.872,95.437,540.557,538.917,0.0
54171.0,STARLINK-5229,PAYLOAD,2023-07-09 18:57:06,15.08803439,0.0001319,53.2178,60.9761,109.63,250.4834,0.00041486,6.314e-05,0.0,0 STARLINK-5229,1 54171U 22141Q   23190.78966048  .00006314  00000-0  41486-3 0  9991,2 54171  53.2178  60.9761 0001319 109.6300 250.4834 15.08803439 38769,6917.992,95.44,540.77,538.945,0.0
54171.0,STARLINK-5229,PAYLOAD,2023-07-09 22:07:52,15.08839643,0.0001062,53.2179,60.3825,91.6595,268.4518,-5.3416e-06,-3.73e-06,0.0,0 STARLINK-5229,1 54171U 22141Q   23190.92213720 -.00000373  00000-0 -53416-5 0  9998,2 54171  53.2179  60.3825 0001062  91.6595 268.4518 15.08839643 38782,6917.881,95.438,540.481,539.012,0.0
54171.0,STARLINK-5229,PAYLOAD,2023-07-11 01:09:25,15.08844968,0.0001098,53.2172,55.3259,87.1665,272.9452,8.3023e-05,1.034e-05,0.0,0 STARLINK-5229,1 54171U 22141Q   23192.04821179  .00001034  00000-0  83023-4 0  9995,2 54171  53.2172  55.3259 0001098  87.1665 272.9452 15.08844968 38959,6917.865,95.437,540.49,538.971,0.0
54171.0,STARLINK-5229,PAYLOAD,2023-07-11 23:24:49,15.0884043,0.0001082,53.2172,51.1614,79.3925,280.7189,1.8252e-05,3e-08,0.0,0 STARLINK-5229,1 54171U 22141Q   23192.97557759  .00000003  00000-0  18252-4 0  9994,2 54171  53.2172  51.1614 0001082  79.3925 280.7189 15.08840430 39093,6917.879,95.438,540.493,538.996,0.0
54171.0,STARLINK-5229,PAYLOAD,2023-07-12 07:21:46,15.08834641,0.0001238,53.2184,49.6758,91.4944,268.619,-3.9455e-05,-9.16e-06,0.0,0 STARLINK-5229,1 54171U 22141Q   23193.30678306 -.00000916  00000-0 -39455-4 0  9997,2 54171  53.2184  49.6758 0001238  91.4944 268.6190 15.08834641 39146,6917.897,95.438,540.618,538.905,0.0
54171.0,STARLINK-5229,PAYLOAD,2023-07-13 13:34:05,15.08834858,0.0001369,53.2164,44.0254,91.1584,268.9564,2.1271e-05,5.1e-07,0.0,0 STARLINK-5229,1 54171U 22141Q   23194.56534360  .00000051  00000-0  21271-4 0  9992,2 54171  53.2164  44.0254 0001369  91.1584 268.9564 15.08834858 39335,6917.896,95.438,540.708,538.814,0.0
54171.0,STARLINK-5229,PAYLOAD,2023-07-14 16:35:38,15.08837364,0.0001124,53.2183,38.9715,88.8179,271.2941,7.8844e-05,9.67e-06,0.0,0 STARLINK-5229,1 54171U 22141Q   23195.69142265  .00000967  00000-0  78844-4 0  9990,2 54171  53.2183  38.9715 0001124  88.8179 271.2941 15.08837364 39502,6917.888,95.438,540.531,538.976,0.0
54171.0,STARLINK-5229,PAYLOAD,2023-07-14 21:21:47,15.0884934,0.0001114,53.218,38.0777,96.3826,263.7293,8.0245e-05,9.9e-06,0.0,0 STARLINK-5229,1 54171U 22141Q   23195.89013494  .00000990  00000-0  80245-4 0  9997,2 54171  53.2180  38.0777 0001114  96.3826 263.7293 15.08849340 39536,6917.852,95.437,540.487,538.946,0.0
54171.0,STARLINK-5229,PAYLOAD,2023-07-15 19:37:12,15.08839051,0.0001261,53.2183,33.9166,88.5138,271.5999,0.00010414,1.37e-05,0.0,0 STARLINK-5229,1 54171U 22141Q   23196.81750100  .00001370  00000-0  10414-3 0  9995,2 54171  53.2183  33.9166 0001261  88.5138 271.5999 15.08839051 39670,6917.883,95.438,540.621,538.876,0.0
54171.0,STARLINK-5229,PAYLOAD,2023-07-16 19:27:59,15.08839314,0.0001267,53.218,29.456,87.4542,272.6595,-3.3073e-05,-8.14e-06,0.0,0 STARLINK-5229,1 54171U 22141Q   23197.81110669 -.00000814  00000-0 -33073-4 0  9997,2 54171  53.2180  29.4560 0001267  87.4542 272.6595 15.08839314 39821,6917.882,95.438,540.624,538.871,0.0
54171.0,STARLINK-5229,PAYLOAD,2023-07-17 19:18:45,15.08845977,0.000109,53.2182,24.9941,91.3651,268.7466,0.00010088,1.318e-05,0.0,0 STARLINK-5229,1 54171U 22141Q   23198.80469736  .00001318  00000-0  10088-3 0  9997,2 54171  53.2182  24.9941 0001090  91.3651 268.7466 15.08845977 39976,6917.862,95.437,540.481,538.973,0.0
54171.0,STARLINK-5229,PAYLOAD,2023-07-17 22:29:31,15.0885356,0.000109,53.2183,24.3994,89.2341,270.8776,0.00016646,2.363e-05,0.0,0 STARLINK-5229,1 54171U 22141Q   23198.93717030  .00002363  00000-0  16646-3 0  9991,2 54171  53.2183  24.3994 0001090  89.2341 270.8776 15.08853560 39998,6917.839,95.437,540.458,538.95,0.0
54171.0,STARLINK-5229,PAYLOAD,2023-07-18 11:12:38,15.08835953,0.000146,53.2185,22.0212,75.4794,284.636,6.3041e-05,7.15e-06,0.0,0 STARLINK-5229,1 54171U 22141Q   23199.46710692  .00000715  00000-0  63041-4 0  9998,2 54171  53.2185  22.0212 0001460  75.4794 284.6360 15.08835953 40077,6917.893,95.438,540.768,538.748,0.0
54171.0,STARLINK-5229,PAYLOAD,2023-07-18 22:20:19,15.08843579,0.000108,53.2182,19.9391,86.4143,273.6972,0.0001209,1.637e-05,0.0,0 STARLINK-5229,1 54171U 22141Q   23199.93078094  .00001637  00000-0  12090-3 0  9994,2 54171  53.2182  19.9391 0001080  86.4143 273.6972 15.08843579 40143,6917.869,95.437,540.482,538.987,0.0
54171.0,STARLINK-5229,PAYLOAD,2023-07-19 17:24:58,15.08835561,0.0001032,53.2184,16.3705,91.1233,268.9878,-0.00011388,-2.099e-05,0.0,0 STARLINK-5229,1 54171U 22141Q   23200.72567450 -.00002099  00000-0 -11388-3 0  9997,2 54171  53.2184  16.3705 0001032  91.1233 268.9878 15.08835561 40262,6917.894,95.438,540.473,539.045,0.0
54171.0,STARLINK-5229,PAYLOAD,2023-07-20 22:01:53,15.0885244,0.0001338,53.2186,11.0138,120.2329,239.8796,0.00016479,2.337e-05,0.0,0 STARLINK-5229,1 54171U 22141Q   23201.91798171  .00002337  00000-0  16479-3 0  9994,2 54171  53.2186  11.0138 0001338 120.2329 239.8796 15.08852440 40446,6917.842,95.437,540.633,538.782,0.0
54171.0,STARLINK-5229,PAYLOAD,2023-07-21 10:44:59,15.08841258,0.0001016,53.2176,8.6464,90.0221,270.0887,0.00034321,5.179e-05,0.0,0 STARLINK-5229,1 54171U 22141Q   23202.44791264  .00005179  00000-0  34321-3 0  9992,2 54171  53.2176   8.6464 0001016  90.0221 270.0887 15.08841258 40529,6917.877,95.437,540.444,539.039,0.0
